HYPERFIELD-1A           
1 60562U 24149CY  26068.76488211  .00008569  00000+0  30052-3 0  9998
2 60562  97.3842 149.5066 0003865 313.7844  46.3076 15.29681349 86836
STARLINK-36496          
1 67329U 26002AA  26068.06517928  .00037861  00000+0  13789-2 0  9991
2 67329  43.0006 328.7667 0001739 272.1531  87.9121 15.27564785 10966
